MEAN_MOTION;ECCENTRICITY;INCLINATION;RA_OF_ASC_NODE;ARG_OF_PERICENTER;MEAN_ANOMALY;BSTAR;MEAN_MOTION_DOT;MEAN_MOTION_DDOT;TYPE
0.84930448;0.0175783;16.0272;321.9697;310.2168;240.1567;0;-1.7E-6;0;Intelsat
0.84930461;0.0175741;16.0248;321.9595;310.2553;227.5364;0;-1.79E-6;0;Intelsat
0.84930592;0.017565;16.0223;321.9487;310.2951;238.6985;0;-2.06E-6;0;Intelsat
0.84930415;0.0175779;16.0187;321.9336;310.3353;37.7809;0;-2.0E-6;0;Intelsat
0.84930725;0.0175727;16.0168;321.9252;310.3587;327.9191;0;-2.24E-6;0;Intelsat
0.84930819;0.0175656;16.0149;321.9172;310.3793;241.997;0;-2.31E-6;0;Intelsat
0.84930652;0.0175587;16.0126;321.9071;310.4039;229.3717;0;-2.12E-6;0;Intelsat
0.84930805;0.017556;16.0114;321.9021;310.4191;43.252;0;-2.2E-6;0;Intelsat
0.8493109;0.0175451;16.0077;321.8858;310.4435;243.0705;0;-2.29E-6;0;Intelsat
0.8493106;0.0175418;16.0067;321.8813;310.4514;39.6828;0;-2.2E-6;0;Intelsat
0.84931113;0.0175391;16.0053;321.8751;310.4551;250.344;0;-2.18E-6;0;Intelsat
0.84931305;0.0175344;16.0042;321.8704;310.4604;48.7269;0;-2.26E-6;0;Intelsat
0.8493149;0.0175347;16.0031;321.8654;310.4653;222.2588;0;-2.36E-6;0;Intelsat
0.84931509;0.0175342;16.003;321.8647;310.4663;243.8899;0;-2.37E-6;0;Intelsat
0.84931541;0.0175302;16.002;321.8602;310.4699;36.072;0;-2.35E-6;0;Intelsat
0.84931361;0.0175313;16.0007;321.8541;310.4793;245.1084;0;-2.17E-6;0;Intelsat
0.84931429;0.0175298;15.9987;321.844;310.4893;232.666;0;-2.09E-6;0;Intelsat
0.84931693;0.0175291;15.9964;321.8331;310.5056;247.2058;0;-2.2E-6;0;Intelsat
0.84931457;0.0175298;15.9943;321.823;310.5243;238.4942;0;-1.94E-6;0;Intelsat
0.84931457;0.0175298;15.9943;321.823;310.5243;238.4942;0;-1.94E-6;0;Intelsat
0.84931437;0.0175286;15.9932;321.818;310.526;50.644;0;-1.89E-6;0;Intelsat
0.84931505;0.0175316;15.992;321.8124;310.5491;248.4728;0;-1.94E-6;0;Intelsat
0.84931597;0.0175329;15.9899;321.8026;310.5751;233.1722;0;-1.99E-6;0;Intelsat
0.84931394;0.0175333;15.9888;321.7977;310.5843;46.988;0;-1.83E-6;0;Intelsat
0.84931203;0.0175333;15.9876;321.7922;310.6072;242.1866;0;-1.67E-6;0;Intelsat
0.84931222;0.0175337;15.9865;321.7873;310.6196;56.0887;0;-1.7E-6;0;Intelsat
0.84931336;0.0175332;15.9854;321.7824;310.6399;229.5607;0;-1.8E-6;0;Intelsat
0.84931153;0.0175333;15.983;321.7719;310.6786;238.5662;0;-1.74E-6;0;Intelsat
0.84930862;0.0175328;15.9807;321.762;310.7169;225.9667;0;-1.59E-6;0;Intelsat
0.849309;0.0175327;15.9795;321.757;310.739;39.7931;0;-1.66E-6;0;Intelsat
0.84931016;0.0175307;15.9782;321.7515;310.758;234.9721;0;-1.8E-6;0;Intelsat
0.84930752;0.0175279;15.9758;321.7411;310.797;235.6554;0;-1.72E-6;0;Intelsat
0.84930591;0.0175243;15.9734;321.7309;310.8344;231.3576;0;-1.71E-6;0;Intelsat
0.8493077;0.0175202;15.9711;321.7209;310.8688;218.7449;0;-1.99E-6;0;Intelsat
0.84930762;0.0175204;15.9709;321.7203;310.8696;240.3841;0;-2.0E-6;0;Intelsat
0.84930503;0.0175152;15.9686;321.7104;310.9022;227.817;0;-1.92E-6;0;Intelsat
0.84930596;0.0175095;15.966;321.6999;310.9329;236.7787;0;-2.06E-6;0;Intelsat
0.84930736;0.0175081;15.9649;321.6951;310.9513;44.7672;0;-2.22E-6;0;Intelsat
0.84930808;0.0175035;15.9634;321.6887;310.9637;269.4041;0;-2.29E-6;0;Intelsat
0.84930595;0.0174967;15.9611;321.6794;310.9865;233.1791;0;-2.13E-6;0;Intelsat
0.84930901;0.0174895;15.9586;321.669;311.0079;242.2064;0;-2.34E-6;0;Intelsat
0.84931008;0.0174825;15.9564;321.6592;311.022;223.8302;0;-2.38E-6;0;Intelsat
0.84931008;0.0174825;15.9564;321.6592;311.022;223.8302;0;-2.38E-6;0;Intelsat
0.8493094;0.0174792;15.9551;321.6541;311.0322;43.4856;0;-2.28E-6;0;Intelsat
0.84930951;0.0174758;15.9538;321.6483;311.0361;246.7385;0;-2.23E-6;0;Intelsat
0.84931329;0.0174707;15.9514;321.6383;311.0448;232.5367;0;-2.42E-6;0;Intelsat
0.84931418;0.0174667;15.9503;321.6335;311.0495;39.9329;0;-2.45E-6;0;Intelsat
0.84931327;0.0174656;15.9491;321.628;311.0516;231.1584;0;-2.33E-6;0;Intelsat
0.84931337;0.0174633;15.9468;321.6178;311.0608;222.5113;0;-2.17E-6;0;Intelsat
0.84931689;0.0174609;15.9444;321.6072;311.0673;231.5464;0;-2.34E-6;0;Intelsat
0.84931671;0.0174579;15.9432;321.6022;311.0656;45.4317;0;-2.27E-6;0;Intelsat
0.84931531;0.0174602;15.9421;321.5972;311.0764;218.9688;0;-2.13E-6;0;Intelsat
0.84931482;0.0174587;15.9414;321.5939;311.0783;331.1623;0;-2.06E-6;0;Intelsat
0.84931549;0.0174615;15.9398;321.5867;311.0935;227.9952;0;-2.05E-6;0;Intelsat
0.84931722;0.0174626;15.9374;321.5764;311.1126;237.0251;0;-2.15E-6;0;Intelsat
0.84931379;0.0174645;15.9352;321.5667;311.1346;224.3869;0;-1.84E-6;0;Intelsat
0.84931369;0.0174652;15.9341;321.5618;311.1418;38.2607;0;-1.79E-6;0;Intelsat
0.84931506;0.0174664;15.9329;321.5564;311.1628;233.4111;0;-1.88E-6;0;Intelsat
0.84931424;0.0174681;15.9306;321.5466;311.1914;220.7824;0;-1.87E-6;0;Intelsat
0.84931405;0.0174678;15.9305;321.546;311.1935;242.4391;0;-1.86E-6;0;Intelsat
0.84931093;0.017469;15.9282;321.5363;311.2258;229.8206;0;-1.64E-6;0;Intelsat
0.8493108;0.0174687;15.9274;321.5337;311.2345;322.5975;0;-1.65E-6;0;Intelsat
0.84931183;0.017468;15.9256;321.5258;311.2593;238.8303;0;-1.79E-6;0;Intelsat
0.84931006;0.0174673;15.9232;321.5159;311.2945;226.1964;0;-1.75E-6;0;Intelsat
0.84930734;0.0174647;15.9207;321.5054;311.3293;235.2248;0;-1.62E-6;0;Intelsat
0.84930941;0.0174615;15.9183;321.4955;311.3617;222.5954;0;-1.89E-6;0;Intelsat
0.84930826;0.0174603;15.9171;321.4905;311.3794;36.4333;0;-1.89E-6;0;Intelsat
0.8493056;0.0174557;15.9144;321.4796;311.4122;56.5746;0;-1.8E-6;0;Intelsat
0.84930612;0.0174534;15.9133;321.4748;311.4224;225.6739;0;-1.89E-6;0;Intelsat
0.84930736;0.017449;15.9095;321.4595;311.4695;41.8689;0;-2.16E-6;0;Intelsat
0.84930572;0.0174449;15.9082;321.4541;311.4794;231.0463;0;-2.05E-6;0;Intelsat
0.84930807;0.0174395;15.9057;321.444;311.5017;224.4396;0;-2.21E-6;0;Intelsat
0.84930975;0.0174382;15.9045;321.4391;311.5145;38.273;0;-2.35E-6;0;Intelsat
0.84930864;0.0174265;15.9006;321.423;311.5315;242.4912;0;-2.2E-6;0;Intelsat
0.84931368;0.0174184;15.897;321.4081;311.547;43.7675;0;-2.46E-6;0;Intelsat
0.84931323;0.0174163;15.8957;321.4024;311.5477;238.9459;0;-2.38E-6;0;Intelsat
0.84931227;0.017412;15.8933;321.3923;311.5492;226.3491;0;-2.19E-6;0;Intelsat
0.84931428;0.017409;15.8922;321.3873;311.5515;40.2279;0;-2.28E-6;0;Intelsat
0.84931646;0.0174065;15.8897;321.3766;311.5509;49.314;0;-2.35E-6;0;Intelsat
0.84931491;0.0174055;15.8874;321.3662;311.5522;46.5893;0;-2.11E-6;0;Intelsat
0.84931701;0.0174061;15.885;321.3559;311.5575;45.7437;0;-2.19E-6;0;Intelsat
0.84931717;0.0174057;15.8827;321.3453;311.5577;54.8191;0;-2.14E-6;0;Intelsat
0.84931452;0.0174079;15.8804;321.3354;311.5727;42.1836;0;-1.86E-6;0;Intelsat
0.8493165;0.0174099;15.8781;321.325;311.5895;51.2603;0;-2.0E-6;0;Intelsat
0.84931433;0.017412;15.8757;321.3152;311.6126;38.5995;0;-1.82E-6;0;Intelsat
0.84931261;0.0174146;15.8733;321.3052;311.6433;34.179;0;-1.68E-6;0;Intelsat
0.84931387;0.017417;15.8707;321.2944;311.678;56.6614;0;-1.83E-6;0;Intelsat
0.84931023;0.017417;15.8682;321.2844;311.7072;44.008;0;-1.61E-6;0;Intelsat
0.84930962;0.0174161;15.8639;321.2636;311.7746;40.3874;0;-1.79E-6;0;Intelsat
0.84930635;0.0174157;15.8615;321.2528;311.8149;49.4232;0;-1.65E-6;0;Intelsat
0.84930635;0.0174157;15.8615;321.2528;311.8149;49.4232;0;-1.65E-6;0;Intelsat
0.8493075;0.0174142;15.8578;321.2425;311.8473;44.2965;0;-1.85E-6;0;Intelsat
0.849308;0.0174116;15.8552;321.2321;311.8701;45.8049;0;-2.01E-6;0;Intelsat
0.8493055;0.0174079;15.8526;321.2214;311.8958;54.8664;0;-1.89E-6;0;Intelsat
0.84930858;0.0174043;15.8501;321.2114;311.9149;42.2025;0;-2.19E-6;0;Intelsat
0.84930824;0.0173993;15.8475;321.2007;311.9343;51.2726;0;-2.18E-6;0;Intelsat
0.84930845;0.017394;15.845;321.1906;311.9454;38.6202;0;-2.13E-6;0;Intelsat
0.84931211;0.0173879;15.8424;321.18;311.9506;47.6871;0;-2.37E-6;0;Intelsat
0.84931119;0.017383;15.8398;321.1692;311.9564;56.7656;0;-2.22E-6;0;Intelsat
0.84931119;0.017383;15.8398;321.1692;311.9564;56.7656;0;-2.22E-6;0;Intelsat
0.84931292;0.0173788;15.8374;321.159;311.9539;44.1405;0;-2.21E-6;0;Intelsat
0.84931525;0.0173755;15.8349;321.1481;311.947;53.2359;0;-2.36E-6;0;Intelsat
0.84931398;0.0173738;15.8326;321.1379;311.9405;41.561;0;-2.14E-6;0;Intelsat
0.84931672;0.017375;15.8301;321.1271;311.948;49.666;0;-2.19E-6;0;Intelsat
0.84931819;0.017377;15.8279;321.1168;311.9553;37.0554;0;-2.23E-6;0;Intelsat
0.84931541;0.0173803;15.8255;321.1061;311.9617;46.1286;0;-1.92E-6;0;Intelsat
0.84931633;0.0173842;15.8243;321.1004;311.9841;241.2638;0;-1.95E-6;0;Intelsat
0.84931367;0.0173947;15.8183;321.0748;312.0375;51.5689;0;-1.7E-6;0;Intelsat
0.8493153;0.0173981;15.8159;321.0648;312.0629;38.9252;0;-1.83E-6;0;Intelsat
0.84931227;0.0174016;15.8133;321.0541;312.0962;47.9437;0;-1.64E-6;0;Intelsat
0.84931227;0.0174016;15.8133;321.0541;312.0962;47.9437;0;-1.64E-6;0;Intelsat
0.84931085;0.0174043;15.8108;321.0433;312.1343;56.9623;0;-1.56E-6;0;Intelsat
0.84931153;0.0174056;15.8083;321.033;312.1741;44.2995;0;-1.72E-6;0;Intelsat
0.84930947;0.0174058;15.8069;321.0273;312.1886;239.4704;0;-1.63E-6;0;Intelsat
0.8493078;0.0174068;15.8057;321.0221;312.2079;53.3525;0;-1.54E-6;0;Intelsat
0.84930744;0.017406;15.8038;321.0141;312.2206;326.3977;0;-1.59E-6;0;Intelsat
0.84930883;0.0174048;15.8006;321.0009;312.2648;49.7315;0;-1.85E-6;0;Intelsat
0.8493054;0.0174037;15.7981;320.9906;312.2901;37.079;0;-1.7E-6;0;Intelsat
0.84930533;0.0174031;15.798;320.9899;312.2928;58.7883;0;-1.7E-6;0;Intelsat
0.84930617;0.0174007;15.7967;320.9848;312.2968;232.2685;0;-1.8E-6;0;Intelsat
0.84930748;0.0173981;15.7932;320.9688;312.3367;55.1657;0;-2.05E-6;0;Intelsat
0.84930677;0.0173941;15.7909;320.9583;312.3466;51.7449;0;-1.99E-6;0;Intelsat
0.84931038;0.0173904;15.7883;320.9477;312.3612;51.5954;0;-2.25E-6;0;Intelsat
0.84931038;0.0173904;15.7883;320.9477;312.3612;51.5954;0;-2.25E-6;0;Intelsat
0.84931034;0.0173867;15.7859;320.9375;312.3722;38.9789;0;-2.19E-6;0;Intelsat
0.84931047;0.0173831;15.7833;320.9266;312.3779;48.0263;0;-2.12E-6;0;Intelsat
0.84931419;0.0173804;15.7808;320.9157;312.3794;57.1065;0;-2.33E-6;0;Intelsat
0.84931316;0.0173788;15.7784;320.9054;312.3793;44.4879;0;-2.15E-6;0;Intelsat
